OBJECT_NAME,OBJECT_ID,EPOCH,MEAN_MOTION,ECCENTRICITY,INCLINATION,RA_OF_ASC_NODE,ARG_OF_PERICENTER,MEAN_ANOMALY,EPHEMERIS_TYPE,CLASSIFICATION_TYPE,NORAD_CAT_ID,ELEMENT_SET_NO,REV_AT_EPOCH,BSTAR,MEAN_MOTION_DOT,MEAN_MOTION_DDOT
IRIDIUM 135,2017-083A,2026-06-26T10:20:19.161312,14.34217660,.00020676,86.3970,318.1504,92.6258,267.5174,0,U,43070,999,44547,-.1840813E-5,.15E-6,0
IRIDIUM 138,2017-083B,2026-06-26T10:56:51.174240,14.34217950,.00022265,86.3986,317.8366,87.1726,272.9724,0,U,43071,999,44546,.15068328E-4,.62E-6,0
IRIDIUM 116,2017-083C,2026-06-26T15:12:35.143776,14.34218111,.0002162,86.3972,318.0512,101.7438,258.4001,0,U,43072,999,44552,.41652159E-4,.136E-5,0
IRIDIUM 130,2017-083D,2026-06-26T11:05:59.021952,14.34216992,.00019916,86.3978,318.3990,96.4606,263.6817,0,U,43073,999,44544,.16013276E-4,.65E-6,0
IRIDIUM 151,2017-083E,2026-06-26T10:29:27.179232,14.34217730,.00021962,86.3972,318.1913,93.9622,266.1825,0,U,43074,999,44546,.3801069E-5,.3E-6,0
IRIDIUM 134,2017-083F,2026-06-26T11:24:15.099264,14.34218485,.00021283,86.3975,318.1836,93.9617,266.1822,0,U,43075,999,44543,.44730455E-4,.145E-5,0
IRIDIUM 137,2017-083G,2026-06-26T15:03:27.231264,14.34217366,.00023841,86.3975,318.2132,102.2542,257.8921,0,U,43076,999,44552,-.11975802E-4,-.14E-6,0
IRIDIUM 141,2017-083H,2026-06-26T14:54:19.160640,14.34217825,.00022075,86.3971,318.0457,91.3651,268.7798,0,U,43077,999,44552,.6910037E-5,.39E-6,0
IRIDIUM 153,2017-083J,2026-06-26T13:45:27.422784,14.34217422,.00020816,86.3965,286.5467,90.8488,269.2946,0,U,43078,999,44662,-.7294906E-5,-.1E-7,0
IRIDIUM 131,2017-083K,2026-06-26T09:34:39.177984,14.34217373,.00021314,86.3974,318.3253,92.3023,267.8417,0,U,43079,999,44542,-.667651E-6,.18E-6,0
IRIDIUM 144,2018-030A,2026-06-26T13:54:35.117568,14.34216744,.00021729,86.3963,286.4726,97.8471,262.2971,0,U,43249,999,43148,.58424993E-4,.183E-5,0
IRIDIUM 149,2018-030B,2026-06-26T14:03:43.438752,14.34217673,.00022897,86.3963,286.4369,93.7959,266.3498,0,U,43250,999,43150,-.124589E-5,.16E-6,0
IRIDIUM 157,2018-030C,2026-06-26T07:49:15.413376,14.34217505,.00021598,86.3964,286.5993,94.8355,265.3088,0,U,43251,999,43144,-.10390248E-4,-.9E-7,0
IRIDIUM 140,2018-030D,2026-06-26T13:18:03.312864,14.34217654,.00021491,86.3964,286.5162,95.2523,264.8918,0,U,43252,999,43153,.63363336E-4,.197E-5,0
IRIDIUM 145,2018-030E,2026-06-26T12:59:47.332320,14.34218345,.00022037,86.3962,286.4937,102.8897,257.2545,0,U,43253,999,43146,.3029262E-4,.105E-5,0
IRIDIUM 146,2018-030F,2026-06-26T09:11:27.414816,14.34217840,.00022534,86.3963,286.5722,97.9165,262.2287,0,U,43254,999,43145,.21946453E-4,.81E-6,0
IRIDIUM 148,2018-030G,2026-06-26T16:48:07.425216,14.34217690,.0002216,86.3965,286.4832,96.0889,264.0559,0,U,43255,999,43153,-.19123E-5,.14E-6,0
IRIDIUM 142,2018-030H,2026-06-26T17:42:55.418688,14.34217737,.0002274,86.3961,286.3557,99.5971,260.5482,0,U,43256,999,43150,-.10771E-5,.17E-6,0
IRIDIUM 150,2018-030J,2026-06-26T16:57:15.359328,14.34218243,.0002167,86.3967,286.4856,95.6224,264.5219,0,U,43257,999,43152,.46779E-4,.151E-5,0
IRIDIUM 143,2018-030K,2026-06-26T16:29:51.389376,14.34218322,.0002218,86.3969,286.5864,98.1945,261.9503,0,U,43258,999,43145,.77458E-4,.237E-5,0
IRIDIUM 161,2018-047C,2026-06-26T17:40:46.234272,14.43277568,.0002516,86.4485,84.4797,85.1732,274.9756,0,U,43478,999,42651,.76781E-4,.278E-5,0
IRIDIUM 152,2018-047D,2026-06-26T17:31:02.184096,14.34218251,.0002312,86.3956,84.3426,82.6314,277.5145,0,U,43479,999,42385,.74777E-4,.229E-5,0
IRIDIUM 147,2018-047E,2026-06-26T17:40:10.246080,14.34217575,.0002025,86.3954,84.3453,87.1088,273.0339,0,U,43480,999,42385,-.45029E-5,.7E-7,0
IRIDIUM 110,2018-047F,2026-06-26T17:49:18.308064,14.34217380,.0002358,86.3957,84.4347,78.3054,281.8406,0,U,43481,999,42384,-.93818E-5,-.6E-7,0
IRIDIUM 162,2018-047G,2026-06-26T17:31:42.139776,14.43278923,.000228,86.4481,84.3722,83.8329,276.3131,0,U,43482,999,42650,.79563E-4,.288E-5,0
IRIDIUM 160,2018-061A,2026-06-26T14:50:50.490816,14.34217780,.0002255,86.3955,52.8536,85.6244,274.5209,0,U,43569,999,41472,.631572E-5,.37E-6,0
IRIDIUM 166,2018-061B,2026-06-26T15:27:22.451040,14.34217455,.00020282,86.3948,52.7930,88.1381,272.0048,0,U,43570,999,41475,-.8869103E-5,-.5E-7,0
IRIDIUM 158,2018-061C,2026-06-26T14:41:42.448704,14.34217582,.00021666,86.3950,52.8165,84.0710,276.0733,0,U,43571,999,41471,.22408945E-4,.83E-6,0
IRIDIUM 165,2018-061D,2026-06-26T08:36:22.424832,14.34217632,.00021431,86.3955,52.9691,89.5677,270.5765,0,U,43572,999,41470,.37139281E-4,.124E-5,0
IRIDIUM 155,2018-061E,2026-06-26T09:22:02.436672,14.34218092,.00020639,86.3951,52.8244,84.7452,275.3980,0,U,43573,999,41467,.24109255E-4,.87E-6,0
